[{"OBJECT_NAME":"STARLINK-33945","OBJECT_ID":"2025-112J","EPOCH":"2026-03-09T17:03:51.499008","MEAN_MOTION":15.05656806,"ECCENTRICITY":4.469e-5,"INCLINATION":97.6042,"RA_OF_ASC_NODE":130.0528,"ARG_OF_PERICENTER":79.0155,"MEAN_ANOMALY":281.1122,"EPHEMERIS_TYPE":0,"CLASSIFICATION_TYPE":"U","NORAD_CAT_ID":64154,"ELEMENT_SET_NO":999,"REV_AT_EPOCH":4386,"BSTAR":0.00017901756,"MEAN_MOTION_DOT":2.524e-5,"MEAN_MOTION_DDOT":0},{"OBJECT_NAME":"SL-8 R\/B","OBJECT_ID":"1968-040B","EPOCH":"2026-03-09T18:37:46.369632","MEAN_MOTION":15.03260494,"ECCENTRICITY":0.00239141,"INCLINATION":74.0322,"RA_OF_ASC_NODE":313.5182,"ARG_OF_PERICENTER":137.361,"MEAN_ANOMALY":222.9441,"EPHEMERIS_TYPE":0,"CLASSIFICATION_TYPE":"U","NORAD_CAT_ID":3230,"ELEMENT_SET_NO":999,"REV_AT_EPOCH":9002,"BSTAR":0.00025747843,"MEAN_MOTION_DOT":3.469e-5,"MEAN_MOTION_DDOT":0}]
